NORAD_CAT_ID,OBJECT_NAME,OBJECT_TYPE,EPOCH,MEAN_MOTION,ECCENTRICITY,INCLINATION,RA_OF_ASC_NODE,ARG_OF_PERICENTER,MEAN_ANOMALY,BSTAR,MEAN_MOTION_DOT,MEAN_MOTION_DDOT,TLE_LINE0,TLE_LINE1,TLE_LINE2,SEMIMAJOR_AXIS,PERIOD,APOGEE,PERIGEE,DECAYED
53910.0,STARLINK-5056,PAYLOAD,2023-12-06 11:05:47,15.08848259,0.000162,53.219,54.2885,96.6981,263.4196,-3.8109e-05,-8.95e-06,0.0,0 STARLINK-5056,1 53910U 22119AA  23340.46235194 -.00000895  00000-0 -38109-4 0  9998,2 53910  53.2190  54.2885 0001620  96.6981 263.4196 15.08848259 66979,6917.855,95.437,540.841,538.599,0.0
53910.0,STARLINK-5056,PAYLOAD,2023-12-06 14:16:31,15.08874787,0.0001543,53.2189,53.6941,91.5291,268.5878,0.00018422,2.648e-05,0.0,0 STARLINK-5056,1 53910U 22119AA  23340.59480700  .00002648  00000-0  18422-3 0  9998,2 53910  53.2189  53.6941 0001543  91.5291 268.5878 15.08874787 67413,6917.774,95.435,540.706,538.572,0.0
53910.0,STARLINK-5056,PAYLOAD,2023-12-07 10:56:32,15.08846768,0.0001314,53.2189,49.8288,92.6883,267.426,-0.00012086,-2.211e-05,0.0,0 STARLINK-5056,1 53910U 22119AA  23341.45593324 -.00002211  00000-0 -12086-3 0  9999,2 53910  53.2189  49.8288 0001314  92.6883 267.4260 15.08846768 67128,6917.86,95.437,540.634,538.816,0.0
53910.0,STARLINK-5056,PAYLOAD,2023-12-07 12:31:56,15.08834598,0.0001566,53.219,49.5316,85.2292,274.8879,-0.00020581,-3.561e-05,0.0,0 STARLINK-5056,1 53910U 22119AA  23341.52218378 -.00003561  00000-0 -20581-3 0  9998,2 53910  53.2190  49.5316 0001566  85.2292 274.8879 15.08834598 67553,6917.897,95.438,540.845,538.679,0.0
53910.0,STARLINK-5056,PAYLOAD,2023-12-08 13:58:06,15.08833565,0.0001602,53.2179,44.7735,69.9566,290.1598,-3.7101e-05,-8.78e-06,0.0,0 STARLINK-5056,1 53910U 22119AA  23342.58202427 -.00000878  00000-0 -37101-4 0  9998,2 53910  53.2179  44.7735 0001602  69.9566 290.1598 15.08833565 67716,6917.9,95.438,540.873,538.657,0.0
53910.0,STARLINK-5056,PAYLOAD,2023-12-09 04:16:34,15.08843513,0.0001227,53.2176,42.0973,87.2644,272.8488,-0.00016432,-2.902e-05,0.0,0 STARLINK-5056,1 53910U 22119AA  23343.17817761 -.00002902  00000-0 -16432-3 0  9990,2 53910  53.2176  42.0973 0001227  87.2644 272.8488 15.08843513 67383,6917.87,95.437,540.583,538.886,0.0
53910.0,STARLINK-5056,PAYLOAD,2023-12-09 10:38:06,15.08838539,0.0001398,53.2173,40.9084,82.0751,278.04,1.1973e-05,-9.7e-07,0.0,0 STARLINK-5056,1 53910U 22119AA  23343.44313650 -.00000097  00000-0  11973-4 0  9996,2 53910  53.2173  40.9084 0001398  82.0751 278.0400 15.08838539 67846,6917.885,95.438,540.717,538.783,0.0
53910.0,STARLINK-5056,PAYLOAD,2023-12-10 04:07:22,15.08829837,0.0001408,53.2176,37.6362,91.6316,268.4837,9.2875e-05,1.19e-05,0.0,0 STARLINK-5056,1 53910U 22119AA  23344.17178659  .00001190  00000-0  92875-4 0  9999,2 53910  53.2176  37.6362 0001408  91.6316 268.4837 15.08829837 67530,6917.911,95.438,540.75,538.802,0.0
53910.0,STARLINK-5056,PAYLOAD,2023-12-11 08:44:18,15.08839194,0.0001504,53.2179,32.2839,101.0223,259.0939,8.5628e-05,1.075e-05,0.0,0 STARLINK-5056,1 53910U 22119AA  23345.36410600  .00001075  00000-0  85628-4 0  9996,2 53910  53.2179  32.2839 0001504 101.0223 259.0939 15.08839194 67719,6917.883,95.438,540.788,538.707,0.0
53910.0,STARLINK-5056,PAYLOAD,2023-12-12 08:35:05,15.08847657,0.0001466,53.2172,27.8213,102.9349,257.1807,0.00015022,2.104e-05,0.0,0 STARLINK-5056,1 53910U 22119AA  23346.35769777  .00002104  00000-0  15022-3 0  9992,2 53910  53.2172  27.8213 0001466 102.9349 257.1807 15.08847657 67866,6917.857,95.437,540.736,538.708,0.0
53910.0,STARLINK-5056,PAYLOAD,2023-12-13 10:01:16,15.08835624,0.0001454,53.2168,23.0627,98.8911,261.2246,-4.1097e-05,-9.42e-06,0.0,0 STARLINK-5056,1 53910U 22119AA  23347.41755294 -.00000942  00000-0 -41097-4 0  9991,2 53910  53.2168  23.0627 0001454  98.8911 261.2246 15.08835624 68026,6917.894,95.438,540.765,538.753,0.0
53910.0,STARLINK-5056,PAYLOAD,2023-12-14 09:52:03,15.08807347,0.0001841,53.2173,18.6068,97.205,262.9151,0.00064705,0.00010016,0.0,0 STARLINK-5056,1 53910U 22119AA  23348.41115594  .00010016  00000-0  64705-3 0  9996,2 53910  53.2173  18.6068 0001841  97.2050 262.9151 15.08807347 68594,6917.98,95.44,541.119,538.572,0.0
53910.0,STARLINK-5056,PAYLOAD,2023-12-14 22:35:08,15.08834231,0.0001753,53.2176,16.23,84.4719,275.6473,0.00013843,1.915e-05,0.0,0 STARLINK-5056,1 53910U 22119AA  23348.94107409  .00001915  00000-0  13843-3 0  9995,2 53910  53.2176  16.2300 0001753  84.4719 275.6473 15.08834231 68255,6917.898,95.438,540.976,538.55,0.0
53910.0,STARLINK-5056,PAYLOAD,2023-12-15 08:07:27,15.08835618,0.0001797,53.2164,14.4453,82.4067,277.713,0.00014392,2.003e-05,0.0,0 STARLINK-5056,1 53910U 22119AA  23349.33851601  .00002003  00000-0  14392-3 0  9998,2 53910  53.2164  14.4453 0001797  82.4067 277.7130 15.08835618 68739,6917.894,95.438,541.002,538.516,0.0
53910.0,STARLINK-5056,PAYLOAD,2023-12-16 07:58:14,15.08839895,0.0001857,53.2172,9.9869,82.0217,278.0986,5.5118e-05,5.89e-06,0.0,0 STARLINK-5056,1 53910U 22119AA  23350.33211742  .00000589  00000-0  55118-4 0  9995,2 53910  53.2172   9.9869 0001857  82.0217 278.0986 15.08839895 68462,6917.881,95.438,541.03,538.461,0.0
53910.0,STARLINK-5056,PAYLOAD,2023-12-17 07:49:01,15.08840178,0.0001864,53.2174,5.5225,107.7926,252.327,8.7304e-05,1.102e-05,0.0,0 STARLINK-5056,1 53910U 22119AA  23351.32571546  .00001102  00000-0  87304-4 0  9990,2 53910  53.2174   5.5225 0001864 107.7926 252.3270 15.08840178 69033,6917.88,95.438,541.034,538.455,0.0
53910.0,STARLINK-5056,PAYLOAD,2023-12-17 23:42:54,15.08823254,0.0001851,53.2173,2.5485,119.552,240.5657,-2.7487e-05,-7.25e-06,0.0,0 STARLINK-5056,1 53910U 22119AA  23351.98813444 -.00000725  00000-0 -27487-4 0  9996,2 53910  53.2173   2.5485 0001851 119.5520 240.5657 15.08823254 68712,6917.932,95.439,541.077,538.516,0.0
53910.0,STARLINK-5056,PAYLOAD,2023-12-18 07:39:50,15.08832748,0.000168,53.2176,1.0636,104.7751,255.3427,5.7103e-05,6.21e-06,0.0,0 STARLINK-5056,1 53910U 22119AA  23352.31932999  .00000621  00000-0  57103-4 0  9992,2 53910  53.2176   1.0636 0001680 104.7751 255.3427 15.08832748 68761,6917.903,95.438,540.93,538.605,0.0
53910.0,STARLINK-5056,PAYLOAD,2023-12-19 04:19:50,15.08844883,0.0001596,53.2178,357.1967,99.3033,260.8139,0.00012685,1.732e-05,0.0,0 STARLINK-5056,1 53910U 22119AA  23353.18044430  .00001732  00000-0  12685-3 0  9991,2 53910  53.2178 357.1967 0001596  99.3033 260.8139 15.08844883 68891,6917.865,95.437,540.835,538.626,0.0
53910.0,STARLINK-5056,PAYLOAD,2023-12-19 05:55:13,15.08846365,0.0001533,53.2165,356.8988,92.5806,267.5362,0.00022759,3.337e-05,0.0,0 STARLINK-5056,1 53910U 22119AA  23353.24668606  .00003337  00000-0  22759-3 0  9991,2 53910  53.2165 356.8988 0001533  92.5806 267.5362 15.08846365 69328,6917.861,95.437,540.786,538.665,0.0
53910.0,STARLINK-5056,PAYLOAD,2023-12-20 04:10:38,15.08820376,0.0001613,53.216,352.7339,93.6712,266.4465,-0.00010252,-1.918e-05,0.0,0 STARLINK-5056,1 53910U 22119AA  23354.17406057 -.00001918  00000-0 -10252-3 0  9994,2 53910  53.2160 352.7339 0001613  93.6712 266.4465 15.08820376 69040,6917.94,95.439,540.921,538.69,0.0
53910.0,STARLINK-5056,PAYLOAD,2023-12-20 05:46:01,15.08822522,0.0001607,53.2164,352.4367,91.5289,268.5887,-6.824e-05,-1.373e-05,0.0,0 STARLINK-5056,1 53910U 22119AA  23354.24030077 -.00001373  00000-0 -68240-4 0  9993,2 53910  53.2164 352.4367 0001607  91.5289 268.5887 15.08822522 69474,6917.934,95.439,540.911,538.687,0.0
53910.0,STARLINK-5056,PAYLOAD,2023-12-21 04:01:24,15.08853575,0.0002176,53.2193,348.2849,128.1827,231.9361,3.8728e-05,3.28e-06,0.0,0 STARLINK-5056,1 53910U 22119AA  23355.16764391  .00000328  00000-0  38728-4 0  9993,2 53910  53.2193 348.2849 0002176 128.1827 231.9361 15.08853575 69193,6917.839,95.437,541.209,538.199,0.0
53910.0,STARLINK-5056,PAYLOAD,2023-12-21 07:12:10,15.08863361,0.0001749,53.2166,347.6792,96.5291,263.59,0.00040632,6.189e-05,0.0,0 STARLINK-5056,1 53910U 22119AA  23355.30012225  .00006189  00000-0  40632-3 0  9998,2 53910  53.2166 347.6792 0001749  96.5291 263.5900 15.08863361 69634,6917.809,95.436,540.884,538.464,0.0
53910.0,STARLINK-5056,PAYLOAD,2023-12-22 03:52:11,15.08839196,0.000175,53.2159,343.8097,120.517,239.5995,8.5037e-05,1.066e-05,0.0,0 STARLINK-5056,1 53910U 22119AA  23356.16124522  .00001066  00000-0  85037-4 0  9995,2 53910  53.2159 343.8097 0001750 120.5170 239.5995 15.08839196 69342,6917.883,95.438,540.958,538.537,0.0
53910.0,STARLINK-5056,PAYLOAD,2023-12-22 07:02:58,15.08841332,0.000159,53.2161,343.2211,97.4862,262.6311,0.00024266,3.576e-05,0.0,0 STARLINK-5056,1 53910U 22119AA  23356.29373002  .00003576  00000-0  24266-3 0  9992,2 53910  53.2161 343.2211 0001590  97.4862 262.6311 15.08841332 69781,6917.876,95.437,540.841,538.641,0.0
53910.0,STARLINK-5056,PAYLOAD,2023-12-23 08:29:07,15.08852733,0.0001669,53.2169,338.4521,95.0529,265.0654,2.6638e-05,1.36e-06,0.0,0 STARLINK-5056,1 53910U 22119AA  23357.35356003  .00000136  00000-0  26638-4 0  9997,2 53910  53.2169 338.4521 0001669  95.0529 265.0654 15.08852733 69526,6917.841,95.437,540.861,538.552,0.0
53910.0,STARLINK-5056,PAYLOAD,2023-12-23 22:47:36,15.08838373,0.000198,53.2186,335.7744,133.9653,226.1502,0.00012833,1.755e-05,0.0,0 STARLINK-5056,1 53910U 22119AA  23357.94972637  .00001755  00000-0  12833-3 0  9998,2 53910  53.2186 335.7744 0001980 133.9653 226.1502 15.08838373 70030,6917.885,95.438,541.12,538.381,0.0
53910.0,STARLINK-5056,PAYLOAD,2023-12-24 03:33:45,15.08847458,0.000188,53.2167,334.8917,97.5743,262.5462,0.00018527,2.662e-05,0.0,0 STARLINK-5056,1 53910U 22119AA  23358.14844369  .00002662  00000-0  18527-3 0  9995,2 53910  53.2167 334.8917 0001880  97.5743 262.5462 15.08847458 69643,6917.858,95.437,541.023,538.422,0.0
53910.0,STARLINK-5056,PAYLOAD,2023-12-24 08:19:54,15.08853089,0.0001931,53.2159,333.9983,97.7405,262.3807,0.00030408,4.556e-05,0.0,0 STARLINK-5056,1 53910U 22119AA  23358.34716240  .00004556  00000-0  30408-3 0  9999,2 53910  53.2159 333.9983 0001931  97.7405 262.3807 15.08853089 70090,6917.84,95.437,541.041,538.37,0.0
